{
    "links": {
        "self": "http://www.neowsapp.com/rest/v1/neo/3986774?api_key=iIulBulltgU6a56xZRHN4H3l9WmuAYTsLGpBGhQ2"
    },
    "id": "3986774",
    "neo_reference_id": "3986774",
    "name": "(2020 BX1)",
    "designation": "2020 BX1",
    "nasa_jpl_url": "http://ssd.jpl.nasa.gov/sbdb.cgi?sstr=3986774",
    "absolute_magnitude_h": 25.126,
    "estimated_diameter": {
        "kilometers": {
            "estimated_diameter_min": 0.0250815849,
            "estimated_diameter_max": 0.0560841289
        },
        "meters": {
            "estimated_diameter_min": 25.081584935,
            "estimated_diameter_max": 56.084128898
        },
        "miles": {
            "estimated_diameter_min": 0.0155849695,
            "estimated_diameter_max": 0.0348490513
        },
        "feet": {
            "estimated_diameter_min": 82.288667118,
            "estimated_diameter_max": 184.0030534537
        }
    },
    "is_potentially_hazardous_asteroid": false,
    "close_approach_data": [
        {
            "close_approach_date": "1973-05-04",
            "close_approach_date_full": "1973-May-04 12:35",
            "epoch_date_close_approach": 105366900000,
            "relative_velocity": {
                "kilometers_per_second": "16.4821839152",
                "kilometers_per_hour": "59335.8620947452",
                "miles_per_hour": "36868.9971999265"
            },
            "miss_distance": {
                "astronomical": "0.0748952662",
                "lunar": "29.1342585518",
                "kilometers": "11204172.296602994",
                "miles": "6961949.8352055572"
            },
            "orbiting_body": "Mars"
        },
        {
            "close_approach_date": "2020-01-20",
            "close_approach_date_full": "2020-Jan-20 06:44",
            "epoch_date_close_approach": 1579502640000,
            "relative_velocity": {
                "kilometers_per_second": "13.1487515972",
                "kilometers_per_hour": "47335.5057497494",
                "miles_per_hour": "29412.4424476707"
            },
            "miss_distance": {
                "astronomical": "0.0476179457",
                "lunar": "18.5233808773",
                "kilometers": "7123543.250495659",
                "miles": "4426364.5226077342"
            },
            "orbiting_body": "Earth"
        }
    ],
    "orbital_data": {
        "orbit_id": "1",
        "orbit_determination_date": "2020-01-21 04:12:06",
        "first_observation_date": "2019-12-30",
        "last_observation_date": "2020-01-21",
        "data_arc_in_days": 22,
        "observations_used": 23,
        "orbit_uncertainty": "8",
        "minimum_orbit_intersection": ".0215537",
        "jupiter_tisserand_invariant": "4.020",
        "epoch_osculation": "2458861.5",
        "eccentricity": ".5125298187326909",
        "semi_major_axis": "1.713573125737326",
        "inclination": "3.261162334984475",
        "ascending_node_longitude": "82.52557191700917",
        "orbital_period": "819.3178006212695",
        "perihelion_distance": ".8353158022179638",
        "perihelion_argument": "96.89180428358247",
        "aphelion_distance": "2.591830449256688",
        "perihelion_time": "2458910.238048311456",
        "mean_anomaly": "338.5849918324493",
        "mean_motion": ".4393899409081805",
        "equinox": "J2000",
        "orbit_class": {
            "orbit_class_type": "APO",
            "orbit_class_description": "Near-Earth asteroid orbits which cross the Earth’s orbit similar to that of 1862 Apollo",
            "orbit_class_range": "a (semi-major axis) > 1.0 AU; q (perihelion) < 1.017 AU"
        }
    },
    "is_sentry_object": false
}